[{"OBJECT_NAME":"TOMORROW-S3","OBJECT_ID":"2024-247R","EPOCH":"2026-03-09T11:56:51.820800","MEAN_MOTION":15.27672122,"ECCENTRICITY":3.967e-5,"INCLINATION":44.9999,"RA_OF_ASC_NODE":117.9871,"ARG_OF_PERICENTER":320.9462,"MEAN_ANOMALY":39.1392,"EPHEMERIS_TYPE":0,"CLASSIFICATION_TYPE":"U","NORAD_CAT_ID":62392,"ELEMENT_SET_NO":999,"REV_AT_EPOCH":6770,"BSTAR":0.00028857954,"MEAN_MOTION_DOT":7.664e-5,"MEAN_MOTION_DDOT":0},{"OBJECT_NAME":"STARLINK-36052","OBJECT_ID":"2025-270T","EPOCH":"2026-03-08T16:55:25.747968","MEAN_MOTION":15.27576761,"ECCENTRICITY":1.786e-5,"INCLINATION":43.0007,"RA_OF_ASC_NODE":61.8777,"ARG_OF_PERICENTER":336.7746,"MEAN_ANOMALY":23.3097,"EPHEMERIS_TYPE":0,"CLASSIFICATION_TYPE":"U","NORAD_CAT_ID":66605,"ELEMENT_SET_NO":999,"REV_AT_EPOCH":1755,"BSTAR":0.00098873896,"MEAN_MOTION_DOT":0.00027043,"MEAN_MOTION_DDOT":0}]
