TOMORROW-S3             
1 62392U 24247R   26068.49782200  .00007664  00000+0  28858-3 0  9991
2 62392  44.9999 117.9871 0000396 320.9462  39.1392 15.27672122 67708
STARLINK-36052          
1 66605U 25270T   26067.70515912  .00027043  00000+0  98874-3 0  9994
2 66605  43.0007  61.8777 0000178 336.7746  23.3097 15.27576761 17556
